{"fetched_at":"2026-03-30T06:02:59Z","count":15439,"tles":[{"name":"KNACKSAT-2","line1":"1 67683U 98067XZ  26087.90823796  .00045826  00000+0  71242-3 0  9990","line2":"2 67683  51.6324 336.2444 0010006 255.4599 104.5282 15.53414385  7777","category":"Other"},{"name":"CROCUBE","line1":"1 62394U 24247T   26088.01978992  .00041608  00000+0  93445-3 0  9998","line2":"2 62394  44.9746 349.4569 0003835 202.0976 157.9748 15.42738805 70949","category":"Other"},{"name":"FORESAIL-1 PRIME","line1":"1 66778U 25276DS  26088.18672737  .00007373  00000+0  36654-3 0  9997","line2":"2 66778  97.4251 162.9508 0003321  53.8917 306.2624 15.17926248 18262","category":"Other"}]}