[{"OBJECT_NAME":"CROCUBE","OBJECT_ID":"2024-247T","EPOCH":"2026-03-29T00:28:29.849088","MEAN_MOTION":15.42738805,"ECCENTRICITY":0.0003835,"INCLINATION":44.9746,"RA_OF_ASC_NODE":349.4569,"ARG_OF_PERICENTER":202.0976,"MEAN_ANOMALY":157.9748,"EPHEMERIS_TYPE":0,"CLASSIFICATION_TYPE":"U","NORAD_CAT_ID":62394,"ELEMENT_SET_NO":999,"REV_AT_EPOCH":7094,"BSTAR":0.00093445,"MEAN_MOTION_DOT":0.00041608,"MEAN_MOTION_DDOT":0},{"OBJECT_NAME":"FORESAIL-1 PRIME","OBJECT_ID":"2025-276DS","EPOCH":"2026-03-29T04:28:53.244768","MEAN_MOTION":15.17926248,"ECCENTRICITY":0.0003321,"INCLINATION":97.4251,"RA_OF_ASC_NODE":162.9508,"ARG_OF_PERICENTER":53.8917,"MEAN_ANOMALY":306.2624,"EPHEMERIS_TYPE":0,"CLASSIFICATION_TYPE":"U","NORAD_CAT_ID":66778,"ELEMENT_SET_NO":999,"REV_AT_EPOCH":1826,"BSTAR":0.00036654,"MEAN_MOTION_DOT":7.373e-5,"MEAN_MOTION_DDOT":0},{"OBJECT_NAME":"KNACKSAT-2","OBJECT_ID":"1998-067XZ","EPOCH":"2026-03-28T21:47:51.759744","MEAN_MOTION":15.53414385,"ECCENTRICITY":0.0010006,"INCLINATION":51.6324,"RA_OF_ASC_NODE":336.2444,"ARG_OF_PERICENTER":255.4599,"MEAN_ANOMALY":104.5282,"EPHEMERIS_TYPE":0,"CLASSIFICATION_TYPE":"U","NORAD_CAT_ID":67683,"ELEMENT_SET_NO":999,"REV_AT_EPOCH":777,"BSTAR":0.00071242,"MEAN_MOTION_DOT":0.00045826,"MEAN_MOTION_DDOT":0}]
